GLOBALSTAR M068 [-]     
1 32266U 07048D   23222.95913769 -.00000068  00000+0  20129-3 0  9999
2 32266  51.9857 203.5133 0000868  80.2773 315.1572 12.62764075732413
GLOBALSTAR M079 [+]     
1 37188U 10054A   23223.49426953 -.00000088  00000+0  86150-4 0  9991
2 37188  52.0053  36.7043 0000666  87.8713 307.7888 12.62266806591802
GLOBALSTAR M074 [+]     
1 37189U 10054B   23222.80311648 -.00000101  00000+0  17873-4 0  9992
2 37189  52.0018  38.2356 0000882  82.7293 290.5341 12.62268827591713
GLOBALSTAR M076 [+]     
1 37190U 10054C   23223.46376691 -.00000083  00000+0  11800-3 0  9998
2 37190  52.0040  36.3317 0000606  47.3039 331.0554 12.62276952591800
GLOBALSTAR M077 [+]     
1 37191U 10054D   23222.76667748 -.00000095  00000+0  46337-4 0  9994
2 37191  52.0094 355.1185 0000787  95.7965  51.7210 12.62269717592469
GLOBALSTAR M075 [+]     
1 37192U 10054E   23223.03686751 -.00000096  00000+0  44807-4 0  9992
2 37192  51.9949  80.2656 0000554  74.5020 102.5999 12.62260255590987
GLOBALSTAR M073 [+]     
1 37193U 10054F   23222.45335038 -.00000110  00000+0 -34861-4 0  9994
2 37193  52.0076 355.3463 0000776 100.5399 302.9243 12.62266134592429
GLOBALSTAR M083 [+]     
1 37739U 11033A   23223.48923297 -.00000080  00000+0  13377-3 0  9995
2 37739  51.9852 301.8495 0000773 133.2013 240.5033 12.62268467561880
GLOBALSTAR M088 [+]     
1 37740U 11033B   23222.99232934 -.00000087  00000+0  96028-4 0  9995
2 37740  51.9702 209.4209 0000219 179.7336 214.7697 12.62264736557294
GLOBALSTAR M091 [+]     
1 37741U 11033C   23222.64005934 -.00000095  00000+0  49303-4 0  9999
2 37741  51.9983 172.8387 0000087 128.5249  43.8983 12.62265480558000
GLOBALSTAR M085 [+]     
1 37742U 11033D   23222.75464330 -.00000105  00000+0 -75372-5 0  9990
2 37742  51.9859 124.1272 0000422  72.0109 322.1216 12.62266223558768
GLOBALSTAR M081 [+]     
1 37743U 11033E   23223.44494116 -.00000104  00000+0 -30111-5 0  9994
2 37743  51.9954 124.3961 0000280  35.6204 136.1397 12.62269989558883
GLOBALSTAR M089 [+]     
1 37744U 11033F   23223.37925167 -.00000099  00000+0  28464-4 0  9991
2 37744  51.9932  78.9508 0000799  50.0704   3.0827 12.62266076559595
GLOBALSTAR M084 [+]     
1 38040U 11080A   23222.44840684 -.00000092  00000+0  64978-4 0  9993
2 38040  52.0016 308.7173 0000518  92.9390 347.8190 12.62264491537482
GLOBALSTAR M080 [+]     
1 38041U 11080B   23222.56538334 -.00000083  00000+0  11632-3 0  9991
2 38041  52.0069 309.7293 0000349  82.0301 291.2083 12.62263247537480
GLOBALSTAR M082 [+]     
1 38042U 11080C   23223.05301348 -.00000075  00000+0  15942-3 0  9999
2 38042  52.0056 263.6207 0000961 142.5973 226.9927 12.62269928538280
GLOBALSTAR M092 [+]     
1 38043U 11080D   23222.82125851 -.00000083  00000+0  11448-3 0  9993
2 38043  52.0107 354.6640 0000932  78.3548  77.6840 12.62271449536747
GLOBALSTAR M090 [+]     
1 38044U 11080E   23222.87722758 -.00000074  00000+0  16879-3 0  9991
2 38044  51.9864 258.8361 0000478 152.2371  18.3184 12.62266817538245
GLOBALSTAR M086 [+]     
1 38045U 11080F   23223.34377439 -.00000077  00000+0  15107-3 0  9993
2 38045  51.9873 257.9123 0000862 248.5739 123.6902 12.62269275538313
GLOBALSTAR M097 [+]     
1 39072U 13005A   23222.57599957 -.00000102  00000+0  12320-4 0  9992
2 39072  52.0032 174.1087 0000140 135.6033 224.4845 12.62270197485440
GLOBALSTAR M093 [+]     
1 39073U 13005B   23223.10361068 -.00000097  00000+0  39497-4 0  9990
2 39073  51.9797 166.8867 0000197 198.2811 161.8048 12.62265886485507
GLOBALSTAR M094 [+]     
1 39074U 13005C   23223.34122097 -.00000102  00000+0  12365-4 0  9996
2 39074  51.9957  79.8702 0000585  72.3710 287.7221 12.62266812487040
GLOBALSTAR M096 [+]     
1 39075U 13005D   23223.11672098 -.00000113  00000+0 -51511-4 0  9992
2 39075  52.0059 128.5392 0000123  76.4983 283.5897 12.62267212486269
GLOBALSTAR M078 [+]     
1 39076U 13005E   23223.01094023 -.00000093  00000+0  62719-4 0  9996
2 39076  51.9838 214.2888 0001177 118.4465 241.6520 12.62269478484732
GLOBALSTAR M095 [+]     
1 39077U 13005F   23223.03782890 -.00000088  00000+0  86267-4 0  9993
2 39077  51.9766 211.7427 0000708 150.7266 209.3641 12.62267992484746
GLOBALSTAR M087 [+]     
1 52888U 22064A   23223.03479186 -.00000101  00000+0  51614-4 0  9998
2 52888  51.9730 213.3333 0009231 295.7306  64.2641 13.37550499 55888
